{"type": "FeatureCollection", "features": [ {"type": "Feature", "properties": {"norad_id": 66969, "name": "STARLINK-36149", "group": "last-30-days", "lat": 25.348510235994286, "lon": 132.0060844956803, "alt_km": 346.9746580364699, "timestamp": "2025-12-23T11:34:46.948470+00:00", "meta": {"OBJECT_NAME": "STARLINK-36149", "OBJECT_ID": "2025-288L", "EPOCH": "2025-12-23T04:00:01.998720", "MEAN_MOTION": 15.74394202, "ECCENTRICITY": 0.000161, "INCLINATION": 43.0006, "RA_OF_ASC_NODE": 103.3628, "ARG_OF_PERICENTER": 272.2223, "MEAN_ANOMALY": 135.4357, "EPHEMERIS_TYPE": 0, "CLASSIFICATION_TYPE": "U", "NORAD_CAT_ID": 66969, "ELEMENT_SET_NO": 999, "REV_AT_EPOCH": 350, "BSTAR": -0.014901, "MEAN_MOTION_DOT": -0.0193018, "MEAN_MOTION_DDOT": 0}, "tle": {"line1": "1 66969U 25288L   25357.16668980 -.01930180  00000+0 -14901-1 0  9996", "line2": "2 66969  43.0006 103.3628 0001610 272.2223 135.4357 15.74394202  3505"}}, "geometry": {"type": "Point", "coordinates": [132.0060844956803, 25.348510235994286]}}, {"type": "Feature", "properties": {"norad_id": 66970, "name": "STARLINK-35703", "group": "last-30-days", "lat": 29.675925165958855, "lon": 139.1289713125842, "alt_km": 346.2908180988452, "timestamp": "2025-12-23T11:34:46.948480+00:00", "meta": {"OBJECT_NAME": "STARLINK-35703", "OBJECT_ID": "2025-288M", "EPOCH": "2025-12-23T04:00:01.998720", "MEAN_MOTION": 15.74379521, "ECCENTRICITY": 0.0001608, "INCLINATION": 43.0007, "RA_OF_ASC_NODE": 103.3433, "ARG_OF_PERICENTER": 277.3913, "MEAN_ANOMALY": 137.9336, "EPHEMERIS_TYPE": 0, "CLASSIFICATION_TYPE": "U", "NORAD_CAT_ID": 66970, "ELEMENT_SET_NO": 999, "REV_AT_EPOCH": 350, "BSTAR": -0.014697, "MEAN_MOTION_DOT": -0.01906302, "MEAN_MOTION_DDOT": 0}, "tle": {"line1": "1 66970U 25288M   25357.16668980 -.01906302  00000+0 -14697-1 0  9999", "line2": "2 66970  43.0007 103.3433 0001608 277.3913 137.9336 15.74379521  3502"}}, "geometry": {"type": "Point", "coordinates": [139.1289713125842, 29.675925165958855]}}, {"type": "Feature", "properties": {"norad_id": 66971, "name": "STARLINK-35678", "group": "last-30-days", "lat": 20.69621215352148, "lon": 125.38781850849789, "alt_km": 347.74430894813486, "timestamp": "2025-12-23T11:34:46.948489+00:00", "meta": {"OBJECT_NAME": "STARLINK-35678", "OBJECT_ID": "2025-288N", "EPOCH": "2025-12-23T04:00:01.998720", "MEAN_MOTION": 15.74342326, "ECCENTRICITY": 0.0001609, "INCLINATION": 43.0006, "RA_OF_ASC_NODE": 103.3828, "ARG_OF_PERICENTER": 264.9983, "MEAN_ANOMALY": 135.0228, "EPHEMERIS_TYPE": 0, "CLASSIFICATION_TYPE": "U", "NORAD_CAT_ID": 66971, "ELEMENT_SET_NO": 999, "REV_AT_EPOCH": 350, "BSTAR": -0.014422, "MEAN_MOTION_DOT": -0.01872685, "MEAN_MOTION_DDOT": 0}, "tle": {"line1": "1 66971U 25288N   25357.16668980 -.01872685  00000+0 -14422-1 0  9992", "line2": "2 66971  43.0006 103.3828 0001609 264.9983 135.0228 15.74342326  3502"}}, "geometry": {"type": "Point", "coordinates": [125.38781850849789, 20.69621215352148]}}, {"type": "Feature", "properties": {"norad_id": 66972, "name": "STARLINK-34846", "group": "last-30-days", "lat": 21.886461115097244, "lon": 127.0027016644436, "alt_km": 347.5228720297155, "timestamp": "2025-12-23T11:34:46.948498+00:00", "meta": {"OBJECT_NAME": "STARLINK-34846", "OBJECT_ID": "2025-288P", "EPOCH": "2025-12-23T04:00:01.998720", "MEAN_MOTION": 15.74379085, "ECCENTRICITY": 0.0001759, "INCLINATION": 43.0006, "RA_OF_ASC_NODE": 103.3778, "ARG_OF_PERICENTER": 270.3576, "MEAN_ANOMALY": 131.5588, "EPHEMERIS_TYPE": 0, "CLASSIFICATION_TYPE": "U", "NORAD_CAT_ID": 66972, "ELEMENT_SET_NO": 999, "REV_AT_EPOCH": 350, "BSTAR": -0.014769, "MEAN_MOTION_DOT": -0.01914476, "MEAN_MOTION_DDOT": 0}, "tle": {"line1": "1 66972U 25288P   25357.16668980 -.01914476  00000+0 -14769-1 0  9992", "line2": "2 66972  43.0006 103.3778 0001759 270.3576 131.5588 15.74379085  3504"}}, "geometry": {"type": "Point", "coordinates": [127.0027016644436, 21.886461115097244]}}, {"type": "Feature", "properties": {"norad_id": 66973, "name": "STARLINK-35778", "group": "last-30-days", "lat": 23.05726308459389, "lon": 128.64024516400139, "alt_km": 347.5057954790591, "timestamp": "2025-12-23T11:34:46.948508+00:00", "meta": {"OBJECT_NAME": "STARLINK-35778", "OBJECT_ID": "2025-288Q", "EPOCH": "2025-12-23T04:00:01.998720", "MEAN_MOTION": 15.74388256, "ECCENTRICITY": 0.0001922, "INCLINATION": 43.0007, "RA_OF_ASC_NODE": 103.3732, "ARG_OF_PERICENTER": 267.175, "MEAN_ANOMALY": 136.6498, "EPHEMERIS_TYPE": 0, "CLASSIFICATION_TYPE": "U", "NORAD_CAT_ID": 66973, "ELEMENT_SET_NO": 999, "REV_AT_EPOCH": 350, "BSTAR": -0.014846, "MEAN_MOTION_DOT": -0.01923893, "MEAN_MOTION_DDOT": 0}, "tle": {"line1": "1 66973U 25288Q   25357.16668980 -.01923893  00000+0 -14846-1 0  9992", "line2": "2 66973  43.0007 103.3732 0001922 267.1750 136.6498 15.74388256  3502"}}, "geometry": {"type": "Point", "coordinates": [128.64024516400139, 23.05726308459389]}}, {"type": "Feature", "properties": {"norad_id": 66974, "name": "STARLINK-35780", "group": "last-30-days", "lat": 24.20958120895222, "lon": 130.3044821151707, "alt_km": 347.1515051897859, "timestamp": "2025-12-23T11:34:46.948517+00:00", "meta": {"OBJECT_NAME": "STARLINK-35780", "OBJECT_ID": "2025-288R", "EPOCH": "2025-12-23T04:00:01.998720", "MEAN_MOTION": 15.74387641, "ECCENTRICITY": 0.000139, "INCLINATION": 43.0009, "RA_OF_ASC_NODE": 103.3686, "ARG_OF_PERICENTER": 266.2486, "MEAN_ANOMALY": 139.495, "EPHEMERIS_TYPE": 0, "CLASSIFICATION_TYPE": "U", "NORAD_CAT_ID": 66974, "ELEMENT_SET_NO": 999, "REV_AT_EPOCH": 350, "BSTAR": -0.014841, "MEAN_MOTION_DOT": -0.0192277, "MEAN_MOTION_DDOT": 0}, "tle": {"line1": "1 66974U 25288R   25357.16668980 -.01922770  00000+0 -14841-1 0  9991", "line2": "2 66974  43.0009 103.3686 0001390 266.2486 139.4950 15.74387641  3509"}}, "geometry": {"type": "Point", "coordinates": [130.3044821151707, 24.20958120895222]}}, {"type": "Feature", "properties": {"norad_id": 66975, "name": "STARLINK-35777", "group": "last-30-days", "lat": 26.465418098525586, "lon": 133.7366744255568, "alt_km": 346.8802800691219, "timestamp": "2025-12-23T11:34:46.948526+00:00", "meta": {"OBJECT_NAME": "STARLINK-35777", "OBJECT_ID": "2025-288S", "EPOCH": "2025-12-23T04:00:01.998720", "MEAN_MOTION": 15.74396514, "ECCENTRICITY": 0.0001516, "INCLINATION": 43.0008, "RA_OF_ASC_NODE": 103.3575, "ARG_OF_PERICENTER": 267.9861, "MEAN_ANOMALY": 141.593, "EPHEMERIS_TYPE": 0, "CLASSIFICATION_TYPE": "U", "NORAD_CAT_ID": 66975, "ELEMENT_SET_NO": 999, "REV_AT_EPOCH": 350, "BSTAR": -0.014967, "MEAN_MOTION_DOT": -0.01937597, "MEAN_MOTION_DDOT": 0}, "tle": {"line1": "1 66975U 25288S   25357.16668980 -.01937597  00000+0 -14967-1 0  9994", "line2": "2 66975  43.0008 103.3575 0001516 267.9861 141.5930 15.74396514  3502"}}, "geometry": {"type": "Point", "coordinates": [133.7366744255568, 26.465418098525586]}}, {"type": "Feature", "properties": {"norad_id": 66976, "name": "STARLINK-35772", "group": "last-30-days", "lat": 41.66162627925791, "lon": 174.96749113148337, "alt_km": 406.1512493410828, "timestamp": "2025-12-23T11:34:46.948537+00:00", "meta": {"OBJECT_NAME": "STARLINK-35772", "OBJECT_ID": "2025-288T", "EPOCH": "2025-12-23T04:00:01.998720", "MEAN_MOTION": 15.53432434, "ECCENTRICITY": 0.0001676, "INCLINATION": 42.9999, "RA_OF_ASC_NODE": 104.1045, "ARG_OF_PERICENTER": 277.7925, "MEAN_ANOMALY": 192.1495, "EPHEMERIS_TYPE": 0, "CLASSIFICATION_TYPE": "U", "NORAD_CAT_ID": 66976, "ELEMENT_SET_NO": 999, "REV_AT_EPOCH": 350, "BSTAR": -0.04077, "MEAN_MOTION_DOT": -0.02324444, "MEAN_MOTION_DDOT": 0}, "tle": {"line1": "1 66976U 25288T   25357.16668980 -.02324444  00000+0 -40770-1 0  9998", "line2": "2 66976  42.9999 104.1045 0001676 277.7925 192.1495 15.53432434  3505"}}, "geometry": {"type": "Point", "coordinates": [174.96749113148337, 41.66162627925791]}}, {"type": "Feature", "properties": {"norad_id": 66977, "name": "STARLINK-35770", "group": "last-30-days", "lat": 27.556752754194584, "lon": 135.49607105701114, "alt_km": 346.5412594798154, "timestamp": "2025-12-23T11:34:46.948547+00:00", "meta": {"OBJECT_NAME": "STARLINK-35770", "OBJECT_ID": "2025-288U", "EPOCH": "2025-12-23T04:00:01.998720", "MEAN_MOTION": 15.74389884, "ECCENTRICITY": 0.0001291, "INCLINATION": 43.0006, "RA_OF_ASC_NODE": 103.3537, "ARG_OF_PERICENTER": 272.6095, "MEAN_ANOMALY": 138.8832, "EPHEMERIS_TYPE": 0, "CLASSIFICATION_TYPE": "U", "NORAD_CAT_ID": 66977, "ELEMENT_SET_NO": 999, "REV_AT_EPOCH": 350, "BSTAR": -0.014855, "MEAN_MOTION_DOT": -0.01924407, "MEAN_MOTION_DDOT": 0}, "tle": {"line1": "1 66977U 25288U   25357.16668980 -.01924407  00000+0 -14855-1 0  9998", "line2": "2 66977  43.0006 103.3537 0001291 272.6095 138.8832 15.74389884  3504"}}, "geometry": {"type": "Point", "coordinates": [135.49607105701114, 27.556752754194584]}}, {"type": "Feature", "properties": {"norad_id": 66978, "name": "STARLINK-35787", "group": "last-30-days", "lat": 30.69856265470835, "lon": 141.00533129158995, "alt_km": 346.48653123925124, "timestamp": "2025-12-23T11:34:46.948557+00:00", "meta": {"OBJECT_NAME": "STARLINK-35787", "OBJECT_ID": "2025-288V", "EPOCH": "2025-12-23T04:00:01.998720", "MEAN_MOTION": 15.74374799, "ECCENTRICITY": 0.0001635, "INCLINATION": 43.0006, "RA_OF_ASC_NODE": 103.3389, "ARG_OF_PERICENTER": 260.4304, "MEAN_ANOMALY": 156.827, "EPHEMERIS_TYPE": 0, "CLASSIFICATION_TYPE": "U", "NORAD_CAT_ID": 66978, "ELEMENT_SET_NO": 999, "REV_AT_EPOCH": 350, "BSTAR": -0.01476, "MEAN_MOTION_DOT": -0.01912978, "MEAN_MOTION_DDOT": 0}, "tle": {"line1": "1 66978U 25288V   25357.16668980 -.01912978  00000+0 -14760-1 0  9994", "line2": "2 66978  43.0006 103.3389 0001635 260.4304 156.8270 15.74374799  3505"}}, "geometry": {"type": "Point", "coordinates": [141.00533129158995, 30.69856265470835]}}]}